{
  "type": "FeatureCollection",
  "features": [
    {
      "type": "Feature",
      "properties": {
        "norad_id": 31327,
        "name": "FENGYUN 1C DEB",
        "group": "fengyun-1c-debris",
        "lat": 0.43137252830649453,
        "lon": 0.33822602372595645,
        "alt_km": 481.48448228207144,
        "timestamp": "2025-12-23T05:02:12.312616+00:00",
        "meta_object_name": "FENGYUN 1C DEB",
        "meta_object_id": "1999-025BQF",
        "meta_epoch": "2025-12-22T06:47:26.536128",
        "meta_mean_motion": 15.11384223,
        "meta_eccentricity": 0.00849563,
        "meta_inclination": 98.9835,
        "meta_ra_of_asc_node": 359.3185,
        "meta_arg_of_pericenter": 338.6786,
        "meta_mean_anomaly": 21.0907,
        "meta_ephemeris_type": 0,
        "meta_classification_type": "U",
        "meta_norad_cat_id": 31327,
        "meta_element_set_no": 999,
        "meta_rev_at_epoch": 243,
        "meta_bstar": 0.0016972321,
        "meta_mean_motion_dot": 0.00031274,
        "meta_mean_motion_ddot": 0,
        "tle_line1": "1 31327U 99025BQF 25356.28294602  .00031274  00000+0  16972-2 0  9998",
        "tle_line2": "2 31327  98.9835 359.3185 0084956 338.6786  21.0907 15.11384223  2435"
      },
      "geometry": {
        "type": "Point",
        "coordinates": [
          0.33822602372595645,
          0.43137252830649453
        ]
      }
    },
    {
      "type": "Feature",
      "properties": {
        "norad_id": 31328,
        "name": "FENGYUN 1C DEB",
        "group": "fengyun-1c-debris",
        "lat": -47.945583196297626,
        "lon": -19.780195141027846,
        "alt_km": 845.3793055816286,
        "timestamp": "2025-12-23T05:02:12.312626+00:00",
        "meta_object_name": "FENGYUN 1C DEB",
        "meta_object_id": "1999-025BQG",
        "meta_epoch": "2025-12-22T15:49:25.459680",
        "meta_mean_motion": 14.28948607,
        "meta_eccentricity": 0.0104145,
        "meta_inclination": 98.4845,
        "meta_ra_of_asc_node": 330.1598,
        "meta_arg_of_pericenter": 187.1208,
        "meta_mean_anomaly": 172.8501,
        "meta_ephemeris_type": 0,
        "meta_classification_type": "U",
        "meta_norad_cat_id": 31328,
        "meta_element_set_no": 999,
        "meta_rev_at_epoch": 97604,
        "meta_bstar": 5.9509697e-05,
        "meta_mean_motion_dot": 1.17e-06,
        "meta_mean_motion_ddot": 0,
        "tle_line1": "1 31328U 99025BQG 25356.65932245  .00000117  00000+0  59510-4 0  9991",
        "tle_line2": "2 31328  98.4845 330.1598 0104145 187.1208 172.8501 14.28948607976047"
      },
      "geometry": {
        "type": "Point",
        "coordinates": [
          -19.780195141027846,
          -47.945583196297626
        ]
      }
    },
    {
      "type": "Feature",
      "properties": {
        "norad_id": 31330,
        "name": "FENGYUN 1C DEB",
        "group": "fengyun-1c-debris",
        "lat": -33.48224351730774,
        "lon": 169.28793255949077,
        "alt_km": 530.8028738700532,
        "timestamp": "2025-12-23T05:02:12.312637+00:00",
        "meta_object_name": "FENGYUN 1C DEB",
        "meta_object_id": "1999-025BQJ",
        "meta_epoch": "2025-12-22T10:23:05.984160",
        "meta_mean_motion": 15.13483918,
        "meta_eccentricity": 0.00015579,
        "meta_inclination": 98.8822,
        "meta_ra_of_asc_node": 162.4457,
        "meta_arg_of_pericenter": 241.118,
        "meta_mean_anomaly": 172.8251,
        "meta_ephemeris_type": 0,
        "meta_classification_type": "U",
        "meta_norad_cat_id": 31330,
        "meta_element_set_no": 999,
        "meta_rev_at_epoch": 97276,
        "meta_bstar": 0.010683231,
        "meta_mean_motion_dot": 0.00196266,
        "meta_mean_motion_ddot": 0,
        "tle_line1": "1 31330U 99025BQJ 25356.43270815  .00196266  00000+0  10683-1 0  9994",
        "tle_line2": "2 31330  98.8822 162.4457 0001557 241.1180 172.8251 15.13483918972763"
      },
      "geometry": {
        "type": "Point",
        "coordinates": [
          169.28793255949077,
          -33.48224351730774
        ]
      }
    },
    {
      "type": "Feature",
      "properties": {
        "norad_id": 31331,
        "name": "FENGYUN 1C DEB",
        "group": "fengyun-1c-debris",
        "lat": -54.509277468806324,
        "lon": 35.39001359021431,
        "alt_km": 932.5385633342512,
        "timestamp": "2025-12-23T05:02:12.312648+00:00",
        "meta_object_name": "FENGYUN 1C DEB",
        "meta_object_id": "1999-025BQK",
        "meta_epoch": "2025-12-19T07:00:29.877408",
        "meta_mean_motion": 14.00628517,
        "meta_eccentricity": 0.0053435,
        "meta_inclination": 98.8725,
        "meta_ra_of_asc_node": 18.9328,
        "meta_arg_of_pericenter": 164.3513,
        "meta_mean_anomaly": 195.9319,
        "meta_ephemeris_type": 0,
        "meta_classification_type": "U",
        "meta_norad_cat_id": 31331,
        "meta_element_set_no": 999,
        "meta_rev_at_epoch": 63948,
        "meta_bstar": 0.00038925,
        "meta_mean_motion_dot": 5.44e-06,
        "meta_mean_motion_ddot": 0,
        "tle_line1": "1 31331U 99025BQK 25353.29201247  .00000544  00000+0  38925-3 0  9993",
        "tle_line2": "2 31331  98.8725  18.9328 0053435 164.3513 195.9319 14.00628517639487"
      },
      "geometry": {
        "type": "Point",
        "coordinates": [
          35.39001359021431,
          -54.509277468806324
        ]
      }
    },
    {
      "type": "Feature",
      "properties": {
        "norad_id": 31332,
        "name": "FENGYUN 1C DEB",
        "group": "fengyun-1c-debris",
        "lat": -5.121591391127556,
        "lon": -173.54917158235114,
        "alt_km": 891.8670305188216,
        "timestamp": "2025-12-23T05:02:12.312660+00:00",
        "meta_object_name": "FENGYUN 1C DEB",
        "meta_object_id": "1999-025BQL",
        "meta_epoch": "2025-12-22T06:39:47.949120",
        "meta_mean_motion": 14.11872715,
        "meta_eccentricity": 0.00496023,
        "meta_inclination": 98.7056,
        "meta_ra_of_asc_node": 6.3329,
        "meta_arg_of_pericenter": 358.0402,
        "meta_mean_anomaly": 131.4987,
        "meta_ephemeris_type": 0,
        "meta_classification_type": "U",
        "meta_norad_cat_id": 31332,
        "meta_element_set_no": 999,
        "meta_rev_at_epoch": 96106,
        "meta_bstar": 0.00082426805,
        "meta_mean_motion_dot": 1.48e-05,
        "meta_mean_motion_ddot": 0,
        "tle_line1": "1 31332U 99025BQL 25356.27763830  .00001480  00000+0  82427-3 0  9992",
        "tle_line2": "2 31332  98.7056   6.3329 0049602 358.0402 131.4987 14.11872715961067"
      },
      "geometry": {
        "type": "Point",
        "coordinates": [
          -173.54917158235114,
          -5.121591391127556
        ]
      }
    },
    {
      "type": "Feature",
      "properties": {
        "norad_id": 31333,
        "name": "FENGYUN 1C DEB",
        "group": "fengyun-1c-debris",
        "lat": -51.34924752133558,
        "lon": -179.2867201875667,
        "alt_km": 848.836057536244,
        "timestamp": "2025-12-23T05:02:12.312670+00:00",
        "meta_object_name": "FENGYUN 1C DEB",
        "meta_object_id": "1999-025BQM",
        "meta_epoch": "2025-12-20T18:42:54.770112",
        "meta_mean_motion": 14.26566831,
        "meta_eccentricity": 0.00982731,
        "meta_inclination": 98.4277,
        "meta_ra_of_asc_node": 9.0567,
        "meta_arg_of_pericenter": 2.9268,
        "meta_mean_anomaly": 357.2467,
        "meta_ephemeris_type": 0,
        "meta_classification_type": "U",
        "meta_norad_cat_id": 31333,
        "meta_element_set_no": 999,
        "meta_rev_at_epoch": 96706,
        "meta_bstar": 0.00048897512,
        "meta_mean_motion_dot": 1.199e-05,
        "meta_mean_motion_ddot": 0,
        "tle_line1": "1 31333U 99025BQM 25354.77980058  .00001199  00000+0  48898-3 0  9990",
        "tle_line2": "2 31333  98.4277   9.0567 0098273   2.9268 357.2467 14.26566831967069"
      },
      "geometry": {
        "type": "Point",
        "coordinates": [
          -179.2867201875667,
          -51.34924752133558
        ]
      }
    },
    {
      "type": "Feature",
      "properties": {
        "norad_id": 31336,
        "name": "FENGYUN 1C DEB",
        "group": "fengyun-1c-debris",
        "lat": 74.23241684791368,
        "lon": 20.47104096620203,
        "alt_km": 689.6666993853032,
        "timestamp": "2025-12-23T05:02:12.312680+00:00",
        "meta_object_name": "FENGYUN 1C DEB",
        "meta_object_id": "1999-025BQQ",
        "meta_epoch": "2025-12-22T10:23:35.729952",
        "meta_mean_motion": 14.38719695,
        "meta_eccentricity": 0.00940279,
        "meta_inclination": 98.4633,
        "meta_ra_of_asc_node": 51.5291,
        "meta_arg_of_pericenter": 89.9469,
        "meta_mean_anomaly": 285.8393,
        "meta_ephemeris_type": 0,
        "meta_classification_type": "U",
        "meta_norad_cat_id": 31336,
        "meta_element_set_no": 999,
        "meta_rev_at_epoch": 97930,
        "meta_bstar": 0.00027821112,
        "meta_mean_motion_dot": 8.54e-06,
        "meta_mean_motion_ddot": 0,
        "tle_line1": "1 31336U 99025BQQ 25356.43305243  .00000854  00000+0  27821-3 0  9995",
        "tle_line2": "2 31336  98.4633  51.5291 0094027  89.9469 285.8393 14.38719695979300"
      },
      "geometry": {
        "type": "Point",
        "coordinates": [
          20.47104096620203,
          74.23241684791368
        ]
      }
    }
  ]
}